{
  "norad_id": 58032,
  "name": "STARLINK-30561",
  "history": [
    {
      "epoch": "2026-05-03T10:21:17.629056Z",
      "apogee_km": 476.19560596516294,
      "perigee_km": 474.27871721216525,
      "latitude_deg": 2.99597462681079e-06,
      "longitude_deg": 167.51971140789945,
      "height_km": 476.1236017385578,
      "semi_major_axis_km": 6853.374161588664,
      "eccentricity": 0.00013985,
      "inclination_deg": 53.1603,
      "raan_deg": 184.1784,
      "arg_perigee_deg": 89.3133,
      "mean_anomaly_deg": 270.8028,
      "mean_motion_rev_day": 15.30192601
    },
    {
      "epoch": "2026-05-04T11:26:09.085056Z",
      "apogee_km": 476.0832049325836,
      "perigee_km": 474.41330908086,
      "latitude_deg": 5.829348661240947e-05,
      "longitude_deg": 145.4225107677621,
      "height_km": 476.17163180958744,
      "semi_major_axis_km": 6853.385257006721,
      "eccentricity": 0.00012183,
      "inclination_deg": 53.1608,
      "raan_deg": 179.3256,
      "arg_perigee_deg": 91.7265,
      "mean_anomaly_deg": 268.3876,
      "mean_motion_rev_day": 15.30188885
    },
    {
      "epoch": "2026-05-05T12:31:00.014880Z",
      "apogee_km": 475.9967573259264,
      "perigee_km": 474.47804955812353,
      "latitude_deg": 6.045304704517778e-05,
      "longitude_deg": 123.32656847123046,
      "height_km": 475.98871868184676,
      "semi_major_axis_km": 6853.374403442024,
      "eccentricity": 0.0001108,
      "inclination_deg": 53.1605,
      "raan_deg": 174.4719,
      "arg_perigee_deg": 78.8338,
      "mean_anomaly_deg": 281.2788,
      "mean_motion_rev_day": 15.3019252
    },
    {
      "epoch": "2026-05-06T15:09:54.992736Z",
      "apogee_km": 476.0016783269839,
      "perigee_km": 474.5158621239989,
      "latitude_deg": 1.459395348851913e-05,
      "longitude_deg": 77.343936332682,
      "height_km": 476.1904493126295,
      "semi_major_axis_km": 6853.395770225491,
      "eccentricity": 0.0001084,
      "inclination_deg": 53.1603,
      "raan_deg": 169.3128,
      "arg_perigee_deg": 92.5711,
      "mean_anomaly_deg": 267.5414,
      "mean_motion_rev_day": 15.30185364
    },
    {
      "epoch": "2026-05-07T09:58:33.182112Z",
      "apogee_km": 476.01642892212385,
      "perigee_km": 474.4798999682562,
      "latitude_deg": 1.9666564066076428e-05,
      "longitude_deg": 150.7712906443076,
      "height_km": 476.20961128225963,
      "semi_major_axis_km": 6853.38516444519,
      "eccentricity": 0.0001121,
      "inclination_deg": 53.1601,
      "raan_deg": 165.6718,
      "arg_perigee_deg": 94.7158,
      "mean_anomaly_deg": 265.3971,
      "mean_motion_rev_day": 15.30188916
    },
    {
      "epoch": "2026-05-08T18:53:39.987168Z",
      "apogee_km": 475.9998644922707,
      "perigee_km": 474.4743034211815,
      "latitude_deg": -1.3275369858408629e-05,
      "longitude_deg": 9.27049036609178,
      "height_km": 476.16475298486307,
      "semi_major_axis_km": 6853.374083956726,
      "eccentricity": 0.0001113,
      "inclination_deg": 53.1596,
      "raan_deg": 159.3013,
      "arg_perigee_deg": 92.2107,
      "mean_anomaly_deg": 267.9021,
      "mean_motion_rev_day": 15.30192627
    },
    {
      "epoch": "2026-05-09T18:24:28.141632Z",
      "apogee_km": 476.06640942766626,
      "perigee_km": 474.40104034151864,
      "latitude_deg": 4.305793733502993e-06,
      "longitude_deg": 11.054297706794916,
      "height_km": 476.13302594450465,
      "semi_major_axis_km": 6853.370724884592,
      "eccentricity": 0.0001215,
      "inclination_deg": 53.16,
      "raan_deg": 154.7514,
      "arg_perigee_deg": 90.0794,
      "mean_anomaly_deg": 270.0346,
      "mean_motion_rev_day": 15.30193752
    },
    {
      "epoch": "2026-05-10T17:55:15.866688Z",
      "apogee_km": 476.0052607482612,
      "perigee_km": 474.446805994472,
      "latitude_deg": -3.270638655408946e-05,
      "longitude_deg": 12.838259366218761,
      "height_km": 476.05096974369485,
      "semi_major_axis_km": 6853.363033371366,
      "eccentricity": 0.0001137,
      "inclination_deg": 53.1595,
      "raan_deg": 150.1999,
      "arg_perigee_deg": 84.604,
      "mean_anomaly_deg": 275.509,
      "mean_motion_rev_day": 15.30196328
    },
    {
      "epoch": "2026-05-11T08:01:44.488416Z",
      "apogee_km": 476.01334384014535,
      "perigee_km": 474.4378928414417,
      "latitude_deg": 2.2071661447297643e-05,
      "longitude_deg": 157.90924974573855,
      "height_km": 475.9989158043537,
      "semi_major_axis_km": 6853.362618340793,
      "eccentricity": 0.00011494,
      "inclination_deg": 53.1596,
      "raan_deg": 147.4695,
      "arg_perigee_deg": 80.8756,
      "mean_anomaly_deg": 279.2375,
      "mean_motion_rev_day": 15.30196467
    },
    {
      "epoch": "2026-05-12T07:32:32.553024Z",
      "apogee_km": 476.04116842960866,
      "perigee_km": 474.4237732344927,
      "latitude_deg": 5.887441282676983e-06,
      "longitude_deg": 159.69330954844358,
      "height_km": 476.03347698850087,
      "semi_major_axis_km": 6853.36947083205,
      "eccentricity": 0.000118,
      "inclination_deg": 53.1597,
      "raan_deg": 142.9195,
      "arg_perigee_deg": 83.0989,
      "mean_anomaly_deg": 277.0146,
      "mean_motion_rev_day": 15.30194172
    },
    {
      "epoch": "2026-05-13T07:03:20.534688Z",
      "apogee_km": 476.0262851187699,
      "perigee_km": 474.4390447043752,
      "latitude_deg": -3.827626587095453e-05,
      "longitude_deg": 161.47659551085832,
      "height_km": 475.9971521388061,
      "semi_major_axis_km": 6853.369664911572,
      "eccentricity": 0.0001158,
      "inclination_deg": 53.1594,
      "raan_deg": 138.3684,
      "arg_perigee_deg": 80.3009,
      "mean_anomaly_deg": 279.8122,
      "mean_motion_rev_day": 15.30194107
    },
    {
      "epoch": "2026-05-14T06:34:08.166432Z",
      "apogee_km": 476.0682854156112,
      "perigee_km": 474.38153598215104,
      "latitude_deg": -3.455689639857958e-05,
      "longitude_deg": 163.26087911459015,
      "height_km": 475.9727214748849,
      "semi_major_axis_km": 6853.361910698881,
      "eccentricity": 0.00012306,
      "inclination_deg": 53.1592,
      "raan_deg": 133.8168,
      "arg_perigee_deg": 79.7367,
      "mean_anomaly_deg": 280.3772,
      "mean_motion_rev_day": 15.30196704
    },
    {
      "epoch": "2026-05-15T06:04:56.551584Z",
      "apogee_km": 476.1267658795141,
      "perigee_km": 474.36722807212936,
      "latitude_deg": 8.276742904698764e-06,
      "longitude_deg": 165.0427434927301,
      "height_km": 476.0050304004687,
      "semi_major_axis_km": 6853.383996975821,
      "eccentricity": 0.00012837,
      "inclination_deg": 53.1593,
      "raan_deg": 129.2659,
      "arg_perigee_deg": 80.8456,
      "mean_anomaly_deg": 279.269,
      "mean_motion_rev_day": 15.30189307
    },
    {
      "epoch": "2026-05-16T16:34:06.432672Z",
      "apogee_km": 476.12831672866105,
      "perigee_km": 474.345068893791,
      "latitude_deg": 2.736122770266171e-05,
      "longitude_deg": -0.337508410877181,
      "height_km": 476.09806792224305,
      "semi_major_axis_km": 6853.373692811226,
      "eccentricity": 0.0001301,
      "inclination_deg": 53.1596,
      "raan_deg": 122.5931,
      "arg_perigee_deg": 87.6468,
      "mean_anomaly_deg": 272.4682,
      "mean_motion_rev_day": 15.30192758
    }
  ]
}